NORAD_CAT_ID,OBJECT_NAME,OBJECT_TYPE,EPOCH,MEAN_MOTION,ECCENTRICITY,INCLINATION,RA_OF_ASC_NODE,ARG_OF_PERICENTER,MEAN_ANOMALY,BSTAR,MEAN_MOTION_DOT,MEAN_MOTION_DDOT,TLE_LINE0,TLE_LINE1,TLE_LINE2,SEMIMAJOR_AXIS,PERIOD,APOGEE,PERIGEE,DECAYED
55393.0,STARLINK-4786,PAYLOAD,2024-03-31 14:16:22,14.9833967,0.0002947,70.0012,49.6702,266.6883,93.3939,-0.00010344,-1.327e-05,0.0,0 STARLINK-4786,1 55393U 23014C   24091.59469916 -.00001327  00000-0 -10344-3 0  9990,2 55393  70.0012  49.6702 0002947 266.6883  93.3939 14.98339670 65991,6950.163,96.106,574.076,569.98,0.0
55393.0,STARLINK-4786,PAYLOAD,2024-03-31 22:17:02,14.98332539,0.0002836,70.0011,48.8287,268.666,91.4174,5.1085e-05,5.17e-06,0.0,0 STARLINK-4786,1 55393U 23014C   24091.92850067  .00000517  00000-0  51085-4 0  9994,2 55393  70.0011  48.8287 0002836 268.6660  91.4174 14.98332539 66045,6950.185,96.107,574.021,570.079,0.0
55393.0,STARLINK-4786,PAYLOAD,2024-04-01 06:17:42,14.9833409,0.0002833,70.0012,47.9872,268.3147,91.7688,6.3356e-05,6.63e-06,0.0,0 STARLINK-4786,1 55393U 23014C   24092.26229870  .00000663  00000-0  63356-4 0  9990,2 55393  70.0012  47.9872 0002833 268.3147  91.7688 14.98334090 65158,6950.18,96.107,574.014,570.076,0.0
55393.0,STARLINK-4786,PAYLOAD,2024-04-01 14:18:23,14.98333239,0.0003033,70.001,47.1449,271.1582,88.9229,-1.4582e-06,-1.1e-06,0.0,0 STARLINK-4786,1 55393U 23014C   24092.59609954 -.00000110  00000-0 -14582-5 0  9998,2 55393  70.0010  47.1449 0003033 271.1582  88.9229 14.98333239 66149,6950.183,96.107,574.156,569.94,0.0
55393.0,STARLINK-4786,PAYLOAD,2024-04-01 20:42:55,14.98327146,0.0002766,70.0018,46.4742,269.6603,90.4239,-6.0623e-05,-8.16e-06,0.0,0 STARLINK-4786,1 55393U 23014C   24092.86314606 -.00000816  00000-0 -60623-4 0  9994,2 55393  70.0018  46.4742 0002766 269.6603  90.4239 14.98327146 65242,6950.202,96.107,573.989,570.144,0.0
55393.0,STARLINK-4786,PAYLOAD,2024-04-02 14:20:24,14.98332095,0.0002678,70.0013,44.6213,277.8286,82.2569,-0.00011951,-1.519e-05,0.0,0 STARLINK-4786,1 55393U 23014C   24093.59750554 -.00001519  00000-0 -11951-3 0  9991,2 55393  70.0013  44.6213 0002678 277.8286  82.2569 14.98332095 66290,6950.186,96.107,573.913,570.19,0.0
55393.0,STARLINK-4786,PAYLOAD,2024-04-02 20:44:56,14.98327504,0.00029,70.0014,43.9477,271.0914,88.9913,-4.4408e-05,-6.23e-06,0.0,0 STARLINK-4786,1 55393U 23014C   24093.86454572 -.00000623  00000-0 -44408-4 0  9991,2 55393  70.0014  43.9477 0002900 271.0914  88.9913 14.98327504 65392,6950.201,96.107,574.081,570.05,0.0
55393.0,STARLINK-4786,PAYLOAD,2024-04-03 14:22:25,14.98331828,0.0003043,70.0011,42.0951,258.2623,101.8195,-3.0007e-05,-4.51e-06,0.0,0 STARLINK-4786,1 55393U 23014C   24094.59890126 -.00000451  00000-0 -30007-4 0  9990,2 55393  70.0011  42.0951 0003043 258.2623 101.8195 14.98331828 66447,6950.187,96.107,574.167,569.937,0.0
55393.0,STARLINK-4786,PAYLOAD,2024-04-03 20:46:59,14.98218798,0.0002887,70.0011,41.4219,259.2854,100.798,0.001895,0.00022525,0.0,0 STARLINK-4786,1 55393U 23014C   24094.86596210  .00022525  00000-0  18950-2 0  9992,2 55393  70.0011  41.4219 0002887 259.2854 100.7980 14.98218798 66483,6950.537,96.114,574.408,570.395,0.0
55393.0,STARLINK-4786,PAYLOAD,2024-04-04 06:23:45,14.98329247,0.0002909,70.0012,40.4121,270.4171,89.6655,5.5574e-05,5.7e-06,0.0,0 STARLINK-4786,1 55393U 23014C   24095.26650228  .00000570  00000-0  55574-4 0  9998,2 55393  70.0012  40.4121 0002909 270.4171  89.6655 14.98329247 66540,6950.195,96.107,574.082,570.038,0.0
55393.0,STARLINK-4786,PAYLOAD,2024-04-04 20:48:58,14.98329245,0.0002926,70.0011,38.8974,270.1649,89.9175,3.0476e-05,2.71e-06,0.0,0 STARLINK-4786,1 55393U 23014C   24095.86734308  .00000271  00000-0  30476-4 0  9998,2 55393  70.0011  38.8974 0002926 270.1649  89.9175 14.98329245 65695,6950.195,96.107,574.094,570.027,0.0
55393.0,STARLINK-4786,PAYLOAD,2024-04-04 22:25:06,14.9832889,0.000293,70.0011,38.7291,270.1391,89.9433,2.6255e-05,2.2e-06,0.0,0 STARLINK-4786,1 55393U 23014C   24095.93410341  .00000220  00000-0  26255-4 0  9998,2 55393  70.0011  38.7291 0002930 270.1391  89.9433 14.98328890 66643,6950.196,96.107,574.098,570.025,0.0
55393.0,STARLINK-4786,PAYLOAD,2024-04-05 12:50:18,14.98346892,0.0002951,70.0012,37.2144,273.0408,87.0414,-0.00023989,-2.955e-05,0.0,0 STARLINK-4786,1 55393U 23014C   24096.53493686 -.00002955  00000-0 -23989-3 0  9997,2 55393  70.0012  37.2144 0002951 273.0408  87.0414 14.98346892 65794,6950.141,96.106,574.057,569.955,0.0
55393.0,STARLINK-4786,PAYLOAD,2024-04-05 19:14:51,14.98279393,0.0002978,70.0013,36.5419,265.6012,94.4807,0.00086721,0.00010256,0.0,0 STARLINK-4786,1 55393U 23014C   24096.80198870  .00010256  00000-0  86721-3 0  9998,2 55393  70.0013  36.5419 0002978 265.6012  94.4807 14.98279393 65833,6950.349,96.11,574.284,570.145,0.0
55393.0,STARLINK-4786,PAYLOAD,2024-04-05 20:50:59,14.98331318,0.0002833,70.0012,36.373,271.8255,88.2579,-2.7542e-06,-1.26e-06,0.0,0 STARLINK-4786,1 55393U 23014C   24096.86874164 -.00000126  00000-0 -27542-5 0  9996,2 55393  70.0012  36.3730 0002833 271.8255  88.2579 14.98331318 66782,6950.189,96.107,574.023,570.085,0.0
55393.0,STARLINK-4786,PAYLOAD,2024-04-06 03:15:31,14.98348437,0.0002663,70.0016,35.7001,270.7548,89.3306,-0.00022967,-2.833e-05,0.0,0 STARLINK-4786,1 55393U 23014C   24097.13577623 -.00002833  00000-0 -22967-3 0  9998,2 55393  70.0016  35.7001 0002663 270.7548  89.3306 14.98348437 65884,6950.136,96.106,573.852,570.15,0.0
55393.0,STARLINK-4786,PAYLOAD,2024-04-06 12:52:20,14.98325966,0.0002668,70.0016,34.6894,271.3161,88.7693,-7.1809e-06,-1.79e-06,0.0,0 STARLINK-4786,1 55393U 23014C   24097.53634414 -.00000179  00000-0 -71809-5 0  9996,2 55393  70.0016  34.6894 0002668 271.3161  88.7693 14.98325966 65946,6950.205,96.107,573.925,570.216,0.0
55393.0,STARLINK-4786,PAYLOAD,2024-04-06 22:29:08,14.98325186,0.0002665,70.0025,33.6789,272.6382,87.4472,3.005e-05,2.66e-06,0.0,0 STARLINK-4786,1 55393U 23014C   24097.93690349  .00000266  00000-0  30050-4 0  9996,2 55393  70.0025  33.6789 0002665 272.6382  87.4472 14.98325186 66940,6950.208,96.107,573.925,570.221,0.0
55393.0,STARLINK-4786,PAYLOAD,2024-04-07 04:53:41,14.98317338,0.0002548,70.0023,33.0064,270.593,89.4937,-8.0657e-05,-1.055e-05,0.0,0 STARLINK-4786,1 55393U 23014C   24098.20395253 -.00001055  00000-0 -80657-4 0  9990,2 55393  70.0023  33.0064 0002548 270.5930  89.4937 14.98317338 66043,6950.232,96.108,573.868,570.326,0.0
55393.0,STARLINK-4786,PAYLOAD,2024-04-07 20:55:01,14.98323557,0.0002771,70.0021,31.325,257.9726,102.1123,-7.264e-05,-9.59e-06,0.0,0 STARLINK-4786,1 55393U 23014C   24098.87154968 -.00000959  00000-0 -72640-4 0  9994,2 55393  70.0021  31.3250 0002771 257.9726 102.1123 14.98323557 66140,6950.213,96.107,574.004,570.152,0.0
55393.0,STARLINK-4786,PAYLOAD,2024-04-07 22:31:10,14.98323052,0.0002811,70.0018,31.1564,259.1485,100.9358,-7.735e-05,-1.016e-05,0.0,0 STARLINK-4786,1 55393U 23014C   24098.93831040 -.00001016  00000-0 -77350-4 0  9992,2 55393  70.0018  31.1564 0002811 259.1485 100.9358 14.98323052 67094,6950.214,96.107,574.033,570.126,0.0
55393.0,STARLINK-4786,PAYLOAD,2024-04-08 12:56:22,14.98307566,0.0003074,70.0001,29.6397,269.8291,90.2516,0.00046017,5.399e-05,0.0,0 STARLINK-4786,1 55393U 23014C   24099.53914917  .00005399  00000-0  46017-3 0  9995,2 55393  70.0001  29.6397 0003074 269.8291  90.2516 14.98307566 67186,6950.262,96.108,574.264,569.991,0.0
55393.0,STARLINK-4786,PAYLOAD,2024-04-09 00:09:18,14.98330312,0.0003265,70.0001,28.4618,267.2347,92.8438,0.00012305,1.376e-05,0.0,0 STARLINK-4786,1 55393U 23014C   24100.00646034  .00001376  00000-0  12305-3 0  9996,2 55393  70.0001  28.4618 0003265 267.2347  92.8438 14.98330312 67259,6950.192,96.107,574.326,569.788,0.0
55393.0,STARLINK-4786,PAYLOAD,2024-04-09 04:57:42,14.983355,0.0003055,70.0007,27.9568,267.1167,92.9643,9.1072e-05,9.94e-06,0.0,0 STARLINK-4786,1 55393U 23014C   24100.20673750  .00000994  00000-0  91072-4 0  9997,2 55393  70.0007  27.9568 0003055 267.1167  92.9643 14.98335500 66341,6950.176,96.107,574.164,569.918,0.0
55393.0,STARLINK-4786,PAYLOAD,2024-04-09 12:58:22,14.98328381,0.0002898,70.0016,27.1156,264.7003,95.3825,0.00018574,2.124e-05,0.0,0 STARLINK-4786,1 55393U 23014C   24100.54053952  .00002124  00000-0  18574-3 0  9992,2 55393  70.0016  27.1156 0002898 264.7003  95.3825 14.98328381 67330,6950.198,96.107,574.077,570.049,0.0
55393.0,STARLINK-4786,PAYLOAD,2024-04-10 04:59:43,14.9832949,0.0002913,70.0009,25.4321,267.5123,92.5703,2.232e-05,1.73e-06,0.0,0 STARLINK-4786,1 55393U 23014C   24101.20814365  .00000173  00000-0  22320-4 0  9996,2 55393  70.0009  25.4321 0002913 267.5123  92.5703 14.98329490 66491,6950.194,96.107,574.084,570.035,0.0
55393.0,STARLINK-4786,PAYLOAD,2024-04-10 22:37:11,14.98336383,0.0002973,70.0006,23.5806,268.4173,91.6645,-5.8618e-06,-1.63e-06,0.0,0 STARLINK-4786,1 55393U 23014C   24101.94249779 -.00000163  00000-0 -58618-5 0  9999,2 55393  70.0006  23.5806 0002973 268.4173  91.6645 14.98336383 67547,6950.173,96.107,574.104,569.972,0.0
55393.0,STARLINK-4786,PAYLOAD,2024-04-11 05:01:43,14.98344502,0.0002767,70.001,22.9083,261.6958,98.3888,7.3615e-05,7.86e-06,0.0,0 STARLINK-4786,1 55393U 23014C   24102.20952844  .00000786  00000-0  73615-4 0  9995,2 55393  70.0010  22.9083 0002767 261.6958  98.3888 14.98344502 66644,6950.148,96.106,573.936,570.09,0.0
55393.0,STARLINK-4786,PAYLOAD,2024-04-11 11:26:16,14.9834535,0.0002269,70.0034,22.2347,264.3533,95.7367,-0.00024697,-3.039e-05,0.0,0 STARLINK-4786,1 55393U 23014C   24102.47657549 -.00003039  00000-0 -24697-3 0  9999,2 55393  70.0034  22.2347 0002269 264.3533  95.7367 14.98345350 66681,6950.145,96.106,573.587,570.433,0.0
55393.0,STARLINK-4786,PAYLOAD,2024-04-11 21:03:04,14.98326953,0.0002535,70.0017,21.2258,267.3916,92.6953,3.1965e-06,-5.5e-07,0.0,0 STARLINK-4786,1 55393U 23014C   24102.87714036 -.00000055  00000-0  31965-5 0  9990,2 55393  70.0017  21.2258 0002535 267.3916  92.6953 14.98326953 66748,6950.202,96.107,573.829,570.305,0.0
